STARLINK-1349           
1 45587U 20025BJ  22259.50354170  .00002021  00000+0  15451-3 0  9996
2 45587  53.0578  18.7120 0001232  85.8522 274.2608 15.06397473134064